{
  "type": "FeatureCollection",
  "features": [
    {
      "type": "Feature",
      "properties": {
        "norad_id": 30282,
        "name": "FENGYUN 1C DEB",
        "group": "fengyun-1c-debris",
        "lat": -9.184360102218106,
        "lon": 173.20582192113713,
        "alt_km": 994.6063541195408,
        "timestamp": "2025-12-17T13:48:37.829820+00:00",
        "meta_object_name": "FENGYUN 1C DEB",
        "meta_object_id": "1999-025YT",
        "meta_epoch": "2025-12-16T23:33:45.794592",
        "meta_mean_motion": 14.12981221,
        "meta_eccentricity": 0.0210034,
        "meta_inclination": 98.5014,
        "meta_ra_of_asc_node": 354.0273,
        "meta_arg_of_pericenter": 349.9399,
        "meta_mean_anomaly": 62.0265,
        "meta_ephemeris_type": 0,
        "meta_classification_type": "U",
        "meta_norad_cat_id": 30282,
        "meta_element_set_no": 999,
        "meta_rev_at_epoch": 97411,
        "meta_bstar": 0.00032306087,
        "meta_mean_motion_dot": 6.99e-06,
        "meta_mean_motion_ddot": 0,
        "tle_line1": "1 30282U 99025YT  25350.98178003  .00000699  00000+0  32306-3 0  9991",
        "tle_line2": "2 30282  98.5014 354.0273 0210034 349.9399  62.0265 14.12981221974118"
      },
      "geometry": {
        "type": "Point",
        "coordinates": [
          173.20582192113713,
          -9.184360102218106
        ]
      }
    },
    {
      "type": "Feature",
      "properties": {
        "norad_id": 30283,
        "name": "FENGYUN 1C DEB",
        "group": "fengyun-1c-debris",
        "lat": -70.73917118468768,
        "lon": 11.663827458409845,
        "alt_km": 921.302529608578,
        "timestamp": "2025-12-17T13:48:37.829830+00:00",
        "meta_object_name": "FENGYUN 1C DEB",
        "meta_object_id": "1999-025YU",
        "meta_epoch": "2025-12-16T22:59:12.948000",
        "meta_mean_motion": 14.01976282,
        "meta_eccentricity": 0.01847405,
        "meta_inclination": 98.8668,
        "meta_ra_of_asc_node": 344.5288,
        "meta_arg_of_pericenter": 31.5985,
        "meta_mean_anomaly": 22.0499,
        "meta_ephemeris_type": 0,
        "meta_classification_type": "U",
        "meta_norad_cat_id": 30283,
        "meta_element_set_no": 999,
        "meta_rev_at_epoch": 96750,
        "meta_bstar": 6.8143053e-05,
        "meta_mean_motion_dot": 7.8e-07,
        "meta_mean_motion_ddot": 0,
        "tle_line1": "1 30283U 99025YU  25350.95778875  .00000078  00000+0  68143-4 0  9992",
        "tle_line2": "2 30283  98.8668 344.5288 0184740  31.5985  22.0499 14.01976282967505"
      },
      "geometry": {
        "type": "Point",
        "coordinates": [
          11.663827458409845,
          -70.73917118468768
        ]
      }
    },
    {
      "type": "Feature",
      "properties": {
        "norad_id": 30284,
        "name": "FENGYUN 1C DEB",
        "group": "fengyun-1c-debris",
        "lat": -73.4974577503183,
        "lon": -151.18899149237564,
        "alt_km": 828.4484593421821,
        "timestamp": "2025-12-17T13:48:37.829840+00:00",
        "meta_object_name": "FENGYUN 1C DEB",
        "meta_object_id": "1999-025YV",
        "meta_epoch": "2025-12-17T04:31:30.772704",
        "meta_mean_motion": 14.28793884,
        "meta_eccentricity": 0.0037504,
        "meta_inclination": 98.7207,
        "meta_ra_of_asc_node": 59.6284,
        "meta_arg_of_pericenter": 96.2167,
        "meta_mean_anomaly": 330.6619,
        "meta_ephemeris_type": 0,
        "meta_classification_type": "U",
        "meta_norad_cat_id": 30284,
        "meta_element_set_no": 999,
        "meta_rev_at_epoch": 97579,
        "meta_bstar": 0.0011020625,
        "meta_mean_motion_dot": 2.754e-05,
        "meta_mean_motion_ddot": 0,
        "tle_line1": "1 30284U 99025YV  25351.18855061  .00002754  00000+0  11021-2 0  9996",
        "tle_line2": "2 30284  98.7207  59.6284 0037504  96.2167 330.6619 14.28793884975795"
      },
      "geometry": {
        "type": "Point",
        "coordinates": [
          -151.18899149237564,
          -73.4974577503183
        ]
      }
    },
    {
      "type": "Feature",
      "properties": {
        "norad_id": 30286,
        "name": "FENGYUN 1C DEB",
        "group": "fengyun-1c-debris",
        "lat": 45.38454217319798,
        "lon": -13.123227835791248,
        "alt_km": 832.1289316738212,
        "timestamp": "2025-12-17T13:48:37.829850+00:00",
        "meta_object_name": "FENGYUN 1C DEB",
        "meta_object_id": "1999-025YX",
        "meta_epoch": "2025-12-17T00:16:51.563424",
        "meta_mean_motion": 14.12724864,
        "meta_eccentricity": 0.00648524,
        "meta_inclination": 98.6899,
        "meta_ra_of_asc_node": 355.2469,
        "meta_arg_of_pericenter": 120.7619,
        "meta_mean_anomaly": 300.6694,
        "meta_ephemeris_type": 0,
        "meta_classification_type": "U",
        "meta_norad_cat_id": 30286,
        "meta_element_set_no": 999,
        "meta_rev_at_epoch": 97519,
        "meta_bstar": 8.8422294e-05,
        "meta_mean_motion_dot": 1.25e-06,
        "meta_mean_motion_ddot": 0,
        "tle_line1": "1 30286U 99025YX  25351.01170791  .00000125  00000+0  88422-4 0  9991",
        "tle_line2": "2 30286  98.6899 355.2469 0064852 120.7619 300.6694 14.12724864975193"
      },
      "geometry": {
        "type": "Point",
        "coordinates": [
          -13.123227835791248,
          45.38454217319798
        ]
      }
    },
    {
      "type": "Feature",
      "properties": {
        "norad_id": 30287,
        "name": "FENGYUN 1C DEB",
        "group": "fengyun-1c-debris",
        "lat": -31.377782439307254,
        "lon": -160.01698965577302,
        "alt_km": 1264.8725323530862,
        "timestamp": "2025-12-17T13:48:37.829860+00:00",
        "meta_object_name": "FENGYUN 1C DEB",
        "meta_object_id": "1999-025YY",
        "meta_epoch": "2025-12-17T02:31:02.210016",
        "meta_mean_motion": 13.6860306,
        "meta_eccentricity": 0.04131117,
        "meta_inclination": 98.6374,
        "meta_ra_of_asc_node": 24.879,
        "meta_arg_of_pericenter": 0.7053,
        "meta_mean_anomaly": 56.4233,
        "meta_ephemeris_type": 0,
        "meta_classification_type": "U",
        "meta_norad_cat_id": 30287,
        "meta_element_set_no": 999,
        "meta_rev_at_epoch": 93918,
        "meta_bstar": 0.00083681914,
        "meta_mean_motion_dot": 1.267e-05,
        "meta_mean_motion_ddot": 0,
        "tle_line1": "1 30287U 99025YY  25351.10488669  .00001267  00000+0  83682-3 0  9998",
        "tle_line2": "2 30287  98.6374  24.8790 0413111   0.7053  56.4233 13.68603060939181"
      },
      "geometry": {
        "type": "Point",
        "coordinates": [
          -160.01698965577302,
          -31.377782439307254
        ]
      }
    },
    {
      "type": "Feature",
      "properties": {
        "norad_id": 30288,
        "name": "FENGYUN 1C DEB",
        "group": "fengyun-1c-debris",
        "lat": 12.495214787156021,
        "lon": -104.26823288285988,
        "alt_km": 795.5352039834015,
        "timestamp": "2025-12-17T13:48:37.829870+00:00",
        "meta_object_name": "FENGYUN 1C DEB",
        "meta_object_id": "1999-025YZ",
        "meta_epoch": "2025-12-17T04:54:10.116000",
        "meta_mean_motion": 14.32625035,
        "meta_eccentricity": 0.00209497,
        "meta_inclination": 99.3959,
        "meta_ra_of_asc_node": 73.2269,
        "meta_arg_of_pericenter": 307.9744,
        "meta_mean_anomaly": 106.2583,
        "meta_ephemeris_type": 0,
        "meta_classification_type": "U",
        "meta_norad_cat_id": 30288,
        "meta_element_set_no": 999,
        "meta_rev_at_epoch": 97633,
        "meta_bstar": 0.0014010299,
        "meta_mean_motion_dot": 3.766e-05,
        "meta_mean_motion_ddot": 0,
        "tle_line1": "1 30288U 99025YZ  25351.20428375  .00003766  00000+0  14010-2 0  9992",
        "tle_line2": "2 30288  99.3959  73.2269 0020949 307.9744 106.2583 14.32625035976338"
      },
      "geometry": {
        "type": "Point",
        "coordinates": [
          -104.26823288285988,
          12.495214787156021
        ]
      }
    },
    {
      "type": "Feature",
      "properties": {
        "norad_id": 30289,
        "name": "FENGYUN 1C DEB",
        "group": "fengyun-1c-debris",
        "lat": 0.6222873215184248,
        "lon": -91.74790189752024,
        "alt_km": 827.8598633520505,
        "timestamp": "2025-12-17T13:48:37.829879+00:00",
        "meta_object_name": "FENGYUN 1C DEB",
        "meta_object_id": "1999-025ZA",
        "meta_epoch": "2025-12-17T04:49:39.933696",
        "meta_mean_motion": 14.25864905,
        "meta_eccentricity": 0.00375253,
        "meta_inclination": 98.9271,
        "meta_ra_of_asc_node": 87.7732,
        "meta_arg_of_pericenter": 316.6497,
        "meta_mean_anomaly": 102.752,
        "meta_ephemeris_type": 0,
        "meta_classification_type": "U",
        "meta_norad_cat_id": 30289,
        "meta_element_set_no": 999,
        "meta_rev_at_epoch": 97145,
        "meta_bstar": 0.0015990294,
        "meta_mean_motion_dot": 3.789e-05,
        "meta_mean_motion_ddot": 0,
        "tle_line1": "1 30289U 99025ZA  25351.20115664  .00003789  00000+0  15990-2 0  9990",
        "tle_line2": "2 30289  98.9271  87.7732 0037525 316.6497 102.7520 14.25864905971459"
      },
      "geometry": {
        "type": "Point",
        "coordinates": [
          -91.74790189752024,
          0.6222873215184248
        ]
      }
    }
  ]
}